OBJECT_NAME,OBJECT_ID,EPOCH,MEAN_MOTION,ECCENTRICITY,INCLINATION,RA_OF_ASC_NODE,ARG_OF_PERICENTER,MEAN_ANOMALY,EPHEMERIS_TYPE,CLASSIFICATION_TYPE,NORAD_CAT_ID,ELEMENT_SET_NO,REV_AT_EPOCH,BSTAR,MEAN_MOTION_DOT,MEAN_MOTION_DDOT
ONEWEB-0410,2022-012A,2026-07-15T11:10:21.404928,13.17650897,.00017261,87.9157,0.2337,50.4286,309.6998,0,U,51622,999,21742,.99911866E-4,.52E-6,0
ONEWEB-0411,2022-012B,2026-07-15T11:52:20.210304,13.10376284,.00023093,87.8825,30.6270,96.2739,263.8651,0,U,51623,999,21299,-.17295856E-2,-.591E-5,0
ONEWEB-0415,2022-012C,2026-07-15T11:47:26.293920,13.10375704,.00021268,87.8818,30.6254,87.3258,272.8113,0,U,51624,999,21299,-.19583021E-2,-.671E-5,0
ONEWEB-0416,2022-012D,2026-07-15T12:04:33.798144,13.10377341,.00021977,87.8816,30.6401,83.7814,276.3564,0,U,51625,999,21303,-.98341652E-3,-.331E-5,0
ONEWEB-0422,2022-012E,2026-07-15T11:24:56.121984,13.17649017,.00018905,87.9154,0.2323,112.6350,247.4982,0,U,51626,999,21753,-.55732875E-3,-.204E-5,0
ONEWEB-0423,2022-012F,2026-07-15T11:15:13.372128,13.17648926,.0001771,87.9146,0.2372,90.4568,269.6767,0,U,51627,999,21742,.11274165E-3,.57E-6,0
ONEWEB-0425,2022-012G,2026-07-15T12:19:14.706624,13.10377997,.00017937,87.8820,30.6217,75.6044,284.5282,0,U,51628,999,21303,.49217833E-3,.184E-5,0
ONEWEB-0428,2022-012H,2026-07-15T11:49:53.144544,13.10375619,.00018126,87.8812,30.6324,88.1732,271.9603,0,U,51629,999,21299,-.18340332E-2,-.628E-5,0
ONEWEB-0431,2022-012J,2026-07-15T12:55:40.268928,13.10370318,.00023689,87.8814,30.6161,96.4188,263.7209,0,U,51630,999,21305,.13236709E-2,.475E-5,0
ONEWEB-0434,2022-012K,2026-07-15T12:24:20.181600,13.10377005,.00015607,87.8824,30.6468,68.0941,292.0352,0,U,51631,999,21303,.10712512E-2,.387E-5,0
ONEWEB-0435,2022-012L,2026-07-15T12:33:54.166176,13.10377655,.000187,87.8815,30.6292,97.8172,262.3168,0,U,51632,999,21302,.16156311E-2,.577E-5,0
ONEWEB-0436,2022-012M,2026-07-15T11:03:04.028256,13.17647893,.00019148,87.9154,0.2225,99.4460,260.6888,0,U,51633,999,21740,.55930881E-4,.35E-6,0
ONEWEB-0438,2022-012N,2026-07-15T12:11:52.625472,13.10378597,.00018199,87.8818,30.6366,80.3135,279.8198,0,U,51634,999,21305,-.2450082E-3,-.73E-6,0
ONEWEB-0439,2022-012P,2026-07-15T12:16:47.105184,13.10377407,.0001764,87.8819,30.6232,86.1527,273.9802,0,U,51635,999,21303,.26675611E-3,.106E-5,0
ONEWEB-0442,2022-012Q,2026-07-15T10:52:08.856192,13.17651297,.00017286,87.9146,0.2544,74.2525,285.8797,0,U,51636,999,21739,.12435228E-3,.61E-6,0
ONEWEB-0443,2022-012R,2026-07-15T11:20:04.455456,13.17647940,.00015187,87.9145,0.2516,96.0788,264.0517,0,U,51637,999,21744,.26790347E-4,.23E-6,0
ONEWEB-0444,2022-012S,2026-07-15T12:02:05.931456,13.10377762,.00016541,87.8821,30.6240,89.2696,270.8621,0,U,51638,999,21304,-.12652551E-2,-.429E-5,0
ONEWEB-0445,2022-012T,2026-07-15T12:31:26.505120,13.10378363,.00019559,87.8825,30.6100,86.0227,274.1124,0,U,51639,999,21305,.16830998E-2,.6E-5,0
ONEWEB-0446,2022-012U,2026-07-15T11:59:38.864832,13.10374230,.00021387,87.8817,30.6413,82.8695,277.2675,0,U,51640,999,21303,-.1427007E-2,-.485E-5,0
ONEWEB-0448,2022-012V,2026-07-15T12:06:59.267232,13.10378819,.0001799,87.8816,30.6362,87.5069,272.6264,0,U,51641,999,21300,-.74390418E-3,-.247E-5,0
ONEWEB-0449,2022-012W,2026-07-15T12:14:19.476960,13.10376920,.00018718,87.8823,30.6220,68.1607,291.9719,0,U,51642,999,21301,.51002347E-4,.3E-6,0
ONEWEB-0451,2022-012X,2026-07-15T10:58:12.143136,13.17651306,.00016992,87.9158,0.2216,87.7666,272.3660,0,U,51643,999,21738,.8555345E-4,.46E-6,0
ONEWEB-0452,2022-012Y,2026-07-15T10:55:46.649856,13.17647932,.00015597,87.9148,0.2560,91.0825,269.0486,0,U,51644,999,21739,.11369483E-3,.57E-6,0
ONEWEB-0456,2022-012AA,2026-07-15T12:26:32.264736,13.10374681,.00017914,87.8832,30.6095,92.0420,268.0913,0,U,51646,999,21305,.12494814E-2,.449E-5,0
ONEWEB-0457,2022-012AB,2026-07-15T11:54:34.151904,13.10375193,.00021057,87.8817,30.6295,79.9055,280.2310,0,U,51647,999,21305,-.24790442E-2,-.853E-5,0
ONEWEB-0458,2022-012AC,2026-07-15T12:25:20.179488,13.10375743,.0001636,87.8821,30.6136,86.2751,273.8564,0,U,51648,999,21301,.11361918E-2,.409E-5,0
ONEWEB-0461,2022-012AD,2026-07-15T11:27:22.280544,13.17650197,.00019344,87.9154,0.2310,89.7640,270.3713,0,U,51649,999,21761,-.55862006E-4,-.9E-7,0
ONEWEB-0463,2022-012AE,2026-07-15T11:00:38.345760,13.17651349,.00019829,87.9146,0.2547,90.0760,270.0598,0,U,51650,999,21739,.89883905E-4,.48E-6,0
ONEWEB-0464,2022-012AF,2026-07-15T12:21:40.504896,13.10375629,.00015994,87.8816,30.6351,93.9355,266.1956,0,U,51651,999,21303,.83801721E-3,.305E-5,0
ONEWEB-0468,2022-012AG,2026-07-15T12:28:59.228544,13.10373987,.00016969,87.8813,30.6272,94.8317,265.3004,0,U,51652,999,21301,.14634334E-2,.524E-5,0
