ONEWEB-0410             
1 51622U 22012A   26196.46552552  .00000052  00000+0  99912-4 0  9991
2 51622  87.9157   0.2337 0001726  50.4286 309.6998 13.17650897217428
ONEWEB-0411             
1 51623U 22012B   26196.49467836 -.00000591  00000+0 -17296-2 0  9998
2 51623  87.8825  30.6270 0002309  96.2739 263.8651 13.10376284212994
ONEWEB-0415             
1 51624U 22012C   26196.49127655 -.00000671  00000+0 -19583-2 0  9991
2 51624  87.8818  30.6254 0002126  87.3258 272.8113 13.10375704212992
ONEWEB-0416             
1 51625U 22012D   26196.50316896 -.00000331  00000+0 -98342-3 0  9995
2 51625  87.8816  30.6401 0002197  83.7814 276.3564 13.10377341213035
ONEWEB-0422             
1 51626U 22012E   26196.47564956 -.00000204  00000+0 -55733-3 0  9990
2 51626  87.9154   0.2323 0001890 112.6350 247.4982 13.17649017217535
ONEWEB-0423             
1 51627U 22012F   26196.46890477  .00000057  00000+0  11274-3 0  9996
2 51627  87.9146   0.2372 0001771  90.4568 269.6767 13.17648926217426
ONEWEB-0425             
1 51628U 22012G   26196.51336466  .00000184  00000+0  49218-3 0  9996
2 51628  87.8820  30.6217 0001793  75.6044 284.5282 13.10377997213039
ONEWEB-0428             
1 51629U 22012H   26196.49297621 -.00000628  00000+0 -18340-2 0  9999
2 51629  87.8812  30.6324 0001812  88.1732 271.9603 13.10375619212995
ONEWEB-0431             
1 51630U 22012J   26196.53866052  .00000475  00000+0  13237-2 0  9994
2 51630  87.8814  30.6161 0002368  96.4188 263.7209 13.10370318213052
ONEWEB-0434             
1 51631U 22012K   26196.51690025  .00000387  00000+0  10713-2 0  9996
2 51631  87.8824  30.6468 0001560  68.0941 292.0352 13.10377005213031
ONEWEB-0435             
1 51632U 22012L   26196.52354359  .00000577  00000+0  16156-2 0  9993
2 51632  87.8815  30.6292 0001870  97.8172 262.3168 13.10377655213022
ONEWEB-0436             
1 51633U 22012M   26196.46046329  .00000035  00000+0  55931-4 0  9997
2 51633  87.9154   0.2225 0001914  99.4460 260.6888 13.17647893217403
ONEWEB-0438             
1 51634U 22012N   26196.50824798 -.00000073  00000+0 -24501-3 0  9999
2 51634  87.8818  30.6366 0001819  80.3135 279.8198 13.10378597213053
ONEWEB-0439             
1 51635U 22012P   26196.51165631  .00000106  00000+0  26676-3 0  9995
2 51635  87.8819  30.6232 0001764  86.1527 273.9802 13.10377407213039
ONEWEB-0442             
1 51636U 22012Q   26196.45288028  .00000061  00000+0  12435-3 0  9993
2 51636  87.9146   0.2544 0001728  74.2525 285.8797 13.17651297217396
ONEWEB-0443             
1 51637U 22012R   26196.47227379  .00000023  00000+0  26790-4 0  9996
2 51637  87.9145   0.2516 0001518  96.0788 264.0517 13.17647940217440
ONEWEB-0444             
1 51638U 22012S   26196.50145754 -.00000429  00000+0 -12653-2 0  9990
2 51638  87.8821  30.6240 0001654  89.2696 270.8621 13.10377762213043
ONEWEB-0445             
1 51639U 22012T   26196.52183455  .00000600  00000+0  16831-2 0  9994
2 51639  87.8825  30.6100 0001955  86.0227 274.1124 13.10378363213056
ONEWEB-0446             
1 51640U 22012U   26196.49975538 -.00000485  00000+0 -14270-2 0  9991
2 51640  87.8817  30.6413 0002138  82.8695 277.2675 13.10374230213035
ONEWEB-0448             
1 51641U 22012V   26196.50485263 -.00000247  00000+0 -74390-3 0  9991
2 51641  87.8816  30.6362 0001799  87.5069 272.6264 13.10378819213004
ONEWEB-0449             
1 51642U 22012W   26196.50994765  .00000030  00000+0  51002-4 0  9998
2 51642  87.8823  30.6220 0001871  68.1607 291.9719 13.10376920213011
ONEWEB-0451             
1 51643U 22012X   26196.45708499  .00000046  00000+0  85553-4 0  9995
2 51643  87.9158   0.2216 0001699  87.7666 272.3660 13.17651306217385
ONEWEB-0452             
1 51644U 22012Y   26196.45540104  .00000057  00000+0  11369-3 0  9998
2 51644  87.9148   0.2560 0001559  91.0825 269.0486 13.17647932217397
ONEWEB-0456             
1 51646U 22012AA  26196.51842899  .00000449  00000+0  12495-2 0  9998
2 51646  87.8832  30.6095 0001791  92.0420 268.0913 13.10374681213052
ONEWEB-0457             
1 51647U 22012AB  26196.49622861 -.00000853  00000+0 -24790-2 0  9993
2 51647  87.8817  30.6295 0002105  79.9055 280.2310 13.10375193213052
ONEWEB-0458             
1 51648U 22012AC  26196.51759467  .00000409  00000+0  11362-2 0  9996
2 51648  87.8821  30.6136 0001636  86.2751 273.8564 13.10375743213010
ONEWEB-0461             
1 51649U 22012AD  26196.47734121 -.00000009  00000+0 -55862-4 0  9995
2 51649  87.9154   0.2310 0001934  89.7640 270.3713 13.17650197217618
ONEWEB-0463             
1 51650U 22012AE  26196.45877715  .00000048  00000+0  89884-4 0  9994
2 51650  87.9146   0.2547 0001982  90.0760 270.0598 13.17651349217397
ONEWEB-0464             
1 51651U 22012AF  26196.51505214  .00000305  00000+0  83802-3 0  9993
2 51651  87.8816  30.6351 0001599  93.9355 266.1956 13.10375629213035
ONEWEB-0468             
1 51652U 22012AG  26196.52012996  .00000524  00000+0  14634-2 0  9994
2 51652  87.8813  30.6272 0001696  94.8317 265.3004 13.10373987213019
